{
  "type": "FeatureCollection",
  "features": [
    {
      "type": "Feature",
      "properties": {
        "norad_id": 38833,
        "name": "GPS BIIF-3  (PRN 24)",
        "group": "gps-ops",
        "lat": 26.67443633824455,
        "lon": 172.5161925617865,
        "alt_km": 19773.142241521196,
        "timestamp": "2025-12-24T20:42:21.285782+00:00",
        "meta_object_name": "GPS BIIF-3  (PRN 24)",
        "meta_object_id": "2012-053A",
        "meta_epoch": "2025-12-23T07:42:27.651168",
        "meta_mean_motion": 2.00565064,
        "meta_eccentricity": 0.01760539,
        "meta_inclination": 53.5596,
        "meta_ra_of_asc_node": 150.8054,
        "meta_arg_of_pericenter": 64.149,
        "meta_mean_anomaly": 297.6308,
        "meta_ephemeris_type": 0,
        "meta_classification_type": "U",
        "meta_norad_cat_id": 38833,
        "meta_element_set_no": 999,
        "meta_rev_at_epoch": 9591,
        "meta_bstar": 0,
        "meta_mean_motion_dot": 7.4e-07,
        "meta_mean_motion_ddot": 0,
        "tle_line1": "1 38833U 12053A   25357.32115337  .00000074  00000+0  00000+0 0  9992",
        "tle_line2": "2 38833  53.5596 150.8054 0176053  64.1490 297.6308  2.00565064 95916"
      },
      "geometry": {
        "type": "Point",
        "coordinates": [
          172.5161925617865,
          26.67443633824455
        ]
      }
    },
    {
      "type": "Feature",
      "properties": {
        "norad_id": 39166,
        "name": "GPS BIIF-4  (PRN 27)",
        "group": "gps-ops",
        "lat": 35.925330383997874,
        "lon": 65.15719707501552,
        "alt_km": 20142.333391044238,
        "timestamp": "2025-12-24T20:42:21.285793+00:00",
        "meta_object_name": "GPS BIIF-4  (PRN 27)",
        "meta_object_id": "2013-023A",
        "meta_epoch": "2025-12-24T04:22:45.403680",
        "meta_mean_motion": 2.0056459,
        "meta_eccentricity": 0.01385961,
        "meta_inclination": 54.6422,
        "meta_ra_of_asc_node": 276.1031,
        "meta_arg_of_pericenter": 48.7604,
        "meta_mean_anomaly": 312.4729,
        "meta_ephemeris_type": 0,
        "meta_classification_type": "U",
        "meta_norad_cat_id": 39166,
        "meta_element_set_no": 999,
        "meta_rev_at_epoch": 9237,
        "meta_bstar": 0,
        "meta_mean_motion_dot": -1.6e-07,
        "meta_mean_motion_ddot": 0,
        "tle_line1": "1 39166U 13023A   25358.18246995 -.00000016  00000+0  00000+0 0  9997",
        "tle_line2": "2 39166  54.6422 276.1031 0138596  48.7604 312.4729  2.00564590 92371"
      },
      "geometry": {
        "type": "Point",
        "coordinates": [
          65.15719707501552,
          35.925330383997874
        ]
      }
    },
    {
      "type": "Feature",
      "properties": {
        "norad_id": 39533,
        "name": "GPS BIIF-5  (PRN 30)",
        "group": "gps-ops",
        "lat": 35.495264769616604,
        "lon": -55.31536280888375,
        "alt_km": 20185.33021497574,
        "timestamp": "2025-12-24T20:42:21.285804+00:00",
        "meta_object_name": "GPS BIIF-5  (PRN 30)",
        "meta_object_id": "2014-008A",
        "meta_epoch": "2025-12-23T16:16:25.020768",
        "meta_mean_motion": 2.00548852,
        "meta_eccentricity": 0.00795532,
        "meta_inclination": 53.5993,
        "meta_ra_of_asc_node": 156.4877,
        "meta_arg_of_pericenter": 225.9161,
        "meta_mean_anomaly": 133.4108,
        "meta_ephemeris_type": 0,
        "meta_classification_type": "U",
        "meta_norad_cat_id": 39533,
        "meta_element_set_no": 999,
        "meta_rev_at_epoch": 8616,
        "meta_bstar": 0,
        "meta_mean_motion_dot": 8.2e-07,
        "meta_mean_motion_ddot": 0,
        "tle_line1": "1 39533U 14008A   25357.67806737  .00000082  00000+0  00000+0 0  9990",
        "tle_line2": "2 39533  53.5993 156.4877 0079553 225.9161 133.4108  2.00548852 86167"
      },
      "geometry": {
        "type": "Point",
        "coordinates": [
          -55.31536280888375,
          35.495264769616604
        ]
      }
    },
    {
      "type": "Feature",
      "properties": {
        "norad_id": 39741,
        "name": "GPS BIIF-6  (PRN 06)",
        "group": "gps-ops",
        "lat": -51.52089112181668,
        "lon": -77.8599978402162,
        "alt_km": 20096.252006489325,
        "timestamp": "2025-12-24T20:42:21.285815+00:00",
        "meta_object_name": "GPS BIIF-6  (PRN 06)",
        "meta_object_id": "2014-026A",
        "meta_epoch": "2025-12-23T23:04:28.187040",
        "meta_mean_motion": 2.00560551,
        "meta_eccentricity": 0.0039456,
        "meta_inclination": 56.5792,
        "meta_ra_of_asc_node": 338.3401,
        "meta_arg_of_pericenter": 319.3147,
        "meta_mean_anomaly": 40.3961,
        "meta_ephemeris_type": 0,
        "meta_classification_type": "U",
        "meta_norad_cat_id": 39741,
        "meta_element_set_no": 999,
        "meta_rev_at_epoch": 8502,
        "meta_bstar": 0,
        "meta_mean_motion_dot": -6e-07,
        "meta_mean_motion_ddot": 0,
        "tle_line1": "1 39741U 14026A   25357.96143735 -.00000060  00000+0  00000+0 0  9992",
        "tle_line2": "2 39741  56.5792 338.3401 0039456 319.3147  40.3961  2.00560551 85029"
      },
      "geometry": {
        "type": "Point",
        "coordinates": [
          -77.8599978402162,
          -51.52089112181668
        ]
      }
    },
    {
      "type": "Feature",
      "properties": {
        "norad_id": 40105,
        "name": "GPS BIIF-7  (PRN 09)",
        "group": "gps-ops",
        "lat": -38.23257863028914,
        "lon": -51.45784844036131,
        "alt_km": 20213.19987293971,
        "timestamp": "2025-12-24T20:42:21.285826+00:00",
        "meta_object_name": "GPS BIIF-7  (PRN 09)",
        "meta_object_id": "2014-045A",
        "meta_epoch": "2025-12-23T13:11:32.096256",
        "meta_mean_motion": 2.00573211,
        "meta_eccentricity": 0.00324114,
        "meta_inclination": 55.2352,
        "meta_ra_of_asc_node": 95.4677,
        "meta_arg_of_pericenter": 120.1575,
        "meta_mean_anomaly": 240.1743,
        "meta_ephemeris_type": 0,
        "meta_classification_type": "U",
        "meta_norad_cat_id": 40105,
        "meta_element_set_no": 999,
        "meta_rev_at_epoch": 8255,
        "meta_bstar": 0,
        "meta_mean_motion_dot": 8e-08,
        "meta_mean_motion_ddot": 0,
        "tle_line1": "1 40105U 14045A   25357.54967704  .00000008  00000+0  00000+0 0  9994",
        "tle_line2": "2 40105  55.2352  95.4677 0032411 120.1575 240.1743  2.00573211 82556"
      },
      "geometry": {
        "type": "Point",
        "coordinates": [
          -51.45784844036131,
          -38.23257863028914
        ]
      }
    },
    {
      "type": "Feature",
      "properties": {
        "norad_id": 40294,
        "name": "GPS BIIF-8  (PRN 03)",
        "group": "gps-ops",
        "lat": -35.60686359073635,
        "lon": 9.820149964809202,
        "alt_km": 20248.962203560535,
        "timestamp": "2025-12-24T20:42:21.285837+00:00",
        "meta_object_name": "GPS BIIF-8  (PRN 03)",
        "meta_object_id": "2014-068A",
        "meta_epoch": "2025-12-23T10:16:22.808064",
        "meta_mean_motion": 2.00565491,
        "meta_eccentricity": 0.00608386,
        "meta_inclination": 56.8656,
        "meta_ra_of_asc_node": 37.7327,
        "meta_arg_of_pericenter": 68.9718,
        "meta_mean_anomaly": 291.747,
        "meta_ephemeris_type": 0,
        "meta_classification_type": "U",
        "meta_norad_cat_id": 40294,
        "meta_element_set_no": 999,
        "meta_rev_at_epoch": 8168,
        "meta_bstar": 0,
        "meta_mean_motion_dot": -4.8e-07,
        "meta_mean_motion_ddot": 0,
        "tle_line1": "1 40294U 14068A   25357.42804176 -.00000048  00000+0  00000+0 0  9993",
        "tle_line2": "2 40294  56.8656  37.7327 0060838  68.9718 291.7470  2.00565491 81685"
      },
      "geometry": {
        "type": "Point",
        "coordinates": [
          9.820149964809202,
          -35.60686359073635
        ]
      }
    },
    {
      "type": "Feature",
      "properties": {
        "norad_id": 40534,
        "name": "GPS BIIF-9  (PRN 26)",
        "group": "gps-ops",
        "lat": -32.98647216845334,
        "lon": 60.47743755168544,
        "alt_km": 20471.461545240923,
        "timestamp": "2025-12-24T20:42:21.285849+00:00",
        "meta_object_name": "GPS BIIF-9  (PRN 26)",
        "meta_object_id": "2015-013A",
        "meta_epoch": "2025-12-24T01:21:24.633504",
        "meta_mean_motion": 2.00561873,
        "meta_eccentricity": 0.01074729,
        "meta_inclination": 53.1962,
        "meta_ra_of_asc_node": 211.4215,
        "meta_arg_of_pericenter": 38.7568,
        "meta_mean_anomaly": 322.085,
        "meta_ephemeris_type": 0,
        "meta_classification_type": "U",
        "meta_norad_cat_id": 40534,
        "meta_element_set_no": 999,
        "meta_rev_at_epoch": 7831,
        "meta_bstar": 0,
        "meta_mean_motion_dot": 7.5e-07,
        "meta_mean_motion_ddot": 0,
        "tle_line1": "1 40534U 15013A   25358.05653511  .00000075  00000+0  00000+0 0  9995",
        "tle_line2": "2 40534  53.1962 211.4215 0107472  38.7568 322.0850  2.00561873 78319"
      },
      "geometry": {
        "type": "Point",
        "coordinates": [
          60.47743755168544,
          -32.98647216845334
        ]
      }
    }
  ]
}